OSCAR 7 (AO-7)          
1 07530U 74089B   26175.31411375 -.00000038  00000+0  50599-4 0  9992
2 07530 101.9899 188.6350 0012633 116.8871 256.4434 12.53698145361419
PHASE 3B (AO-10)        
1 14129U 83058B   26174.68191131 -.00000085  00000+0  00000+0 0  9993
2 14129  25.9176 218.4895 6008564 117.4551 314.9460  2.05872578295624
UOSAT 2 (UO-11)         
1 14781U 84021B   26174.86625253  .00001092  00000+0  11662-3 0  9993
2 14781  97.8059 140.3663 0008218 151.7331 208.4334 14.90797521258121
LUSAT (LO-19)           
1 20442U 90005G   26175.01929488  .00000083  00000+0  46428-4 0  9996
2 20442  98.8847 197.0132 0011515 180.6950 179.4219 14.34124888903371
EYESAT A (AO-27)        
1 22825U 93061C   26175.13210451  .00000067  00000+0  42631-4 0  9998
2 22825  98.6877 242.5432 0009527  81.9186 278.3077 14.30943872707991
ITAMSAT (IO-26)         
1 22826U 93061D   26175.17934778  .00000066  00000+0  41553-4 0  9999
2 22826  98.6825 242.5085 0009946  66.8438 293.3792 14.31370976708314
RADIO ROSTO (RS15)      
1 23439U 94085A   26175.03372988 -.00000054  00000+0 -31342-3 0  9994
2 23439  64.8185 292.1434 0156169   2.6089 357.5616 11.27583476296670
JAS-2 (FO-29)           
1 24278U 96046B   26175.18698092 -.00000018  00000+0  14758-4 0  9990
2 24278  98.5235  23.0999 0350920  78.3218 285.7074 13.53274665474119
TECHSAT 1B (GO-32)      
1 25397U 98043D   26174.94820125  .00000038  00000+0  36579-4 0  9995
2 25397  99.0070 167.8775 0001389 150.1095 210.0162 14.24429485452293
ISS (ZARYA)             
1 25544U 98067A   26175.15560926  .00007363  00000+0  13975-3 0  9991
2 25544  51.6326 265.6000 0004427 224.4953 135.5681 15.49396189572839
PCSAT (NO-44)           
1 26931U 01043C   26175.21369351  .00000060  00000+0  53323-4 0  9995
2 26931  67.0495 226.0984 0006053 264.9653  95.0758 14.31958084291452
SAUDISAT 1C (SO-50)     
1 27607U 02058C   26175.03336570  .00000757  00000+0  10682-3 0  9993
2 27607  64.5518 107.8036 0075096 261.1879  98.0718 14.83059331265473
CUTE-1 (CO-55)          
1 27844U 03031E   26175.27271409  .00000238  00000+0  12196-3 0  9999
2 27844  98.6736 183.7425 0009958 157.9715 202.1894 14.24339464192684
CUBESAT XI-IV (CO-57)   
1 27848U 03031J   26173.99963119  .00000177  00000+0  96661-4 0  9998
2 27848  98.6767 182.1936 0009423 179.7329 180.3856 14.23623408192208
MOZHAETS 4 (RS22)       
1 27939U 03042A   26175.29560539  .00000339  00000+0  60456-4 0  9998
2 27939  98.3477 359.8550 0009987 244.1261 288.9539 14.73475746216593
CUBESAT XI-V            
1 28895U 05043F   26175.26515780  .00001196  00000+0  19578-3 0  9998
2 28895  98.2991 331.0356 0014129 178.0583 182.0681 14.72647893102798
CUTE-1.7+APD II (CO-65) 
1 32785U 08021C   26175.20916588  .00004434  00000+0  28054-3 0  9992
2 32785  97.8279 156.7737 0009137  17.8170 342.3376 15.09511070986256
SEEDS II (CO-66)        
1 32791U 08021J   26175.25105171  .00016147  00000+0  50931-3 0  9995
2 32791  97.7521 173.4867 0000305 266.0101  94.1105 15.32959787988376
YUBILEINY (RS30)        
1 32953U 08025A   26175.26100919  .00000088  00000+0  56238-3 0  9998
2 32953  82.5048 351.0390 0018628 297.6731  62.2459 12.43179909820577
KKS-1 (KISEKI)          
1 33499U 09002H   26175.13811603  .00001065  00000+0  13745-3 0  9997
2 33499  98.1187  97.6905 0006358 268.3777  91.6707 14.83139073937224
SWISSCUBE               
1 35932U 09051B   26175.01037925  .00000754  00000+0  15859-3 0  9991
2 35932  98.4031  83.0175 0006447 180.0638 180.0563 14.62492428890158
BEESAT-1                
1 35933U 09051C   26174.20193553  .00000616  00000+0  13339-3 0  9990
2 35933  98.3960  81.8178 0004598 195.0342 165.0722 14.61728503890066
ITUPSAT1                
1 35935U 09051E   26175.29429429  .00000610  00000+0  13593-3 0  9992
2 35935  98.4043  82.1112 0006604 208.5040 151.5799 14.60449650889770
XIWANG-1 (HOPE-1)       
1 36122U 09072B   26175.23580147  .00000174  00000+0  57304-3 0  9996
2 36122 100.4025 128.9553 0006977 214.1465 145.9200 13.16439735793937
O/OREOS (USA 219)       
1 37224U 10062C   26175.09396884  .00001743  00000+0  17008-3 0  9998
2 37224  71.9702  64.6944 0012813  48.3372 311.8893 14.93768885117675
JUGNU                   
1 37839U 11058B   26174.94924012  .00000388  00000+0  62833-4 0  9990
2 37839  19.9603 267.3482 0018533 150.5150   4.5959 14.13778314759988
SRMSAT                  
1 37841U 11058D   26175.23753896  .00000359  00000+0  51087-4 0  9993
2 37841  19.9735  16.7943 0011707 281.6878 234.4486 14.11576866758810
STRAND-1                
1 39090U 13009E   26175.22704534  .00000240  00000+0  95059-4 0  9999
2 39090  98.3925 355.2881 0008107 202.3684 157.7151 14.37166829698076
ZACUBE-1 (TSHEPISOSAT)  
1 39417U 13066B   26175.13942580  .00002435  00000+0  19122-3 0  9994
2 39417  97.8056 137.5120 0041739 223.8943 135.8962 15.01220001681770
GOMX-1                  
1 39430U 13066Q   26175.26760003  .00001230  00000+0  18985-3 0  9999
2 39430  97.6486  15.2832 0129949  55.0762 306.2573 14.69479948670955
